NORAD_CAT_ID,OBJECT_NAME,OBJECT_TYPE,EPOCH,MEAN_MOTION,ECCENTRICITY,INCLINATION,RA_OF_ASC_NODE,ARG_OF_PERICENTER,MEAN_ANOMALY,BSTAR,MEAN_MOTION_DOT,MEAN_MOTION_DDOT,TLE_LINE0,TLE_LINE1,TLE_LINE2,SEMIMAJOR_AXIS,PERIOD,APOGEE,PERIGEE,DECAYED
56771.0,STARLINK-6339,PAYLOAD,2023-11-20 07:05:52,15.69924696,0.0003179,69.9984,286.8461,271.8991,88.184,-7.7213e-06,-1.141e-05,0.0,0 STARLINK-6339,1 56771U 23078E   23324.29574844 -.00001141  00000-0 -77213-5 0  9997,2 56771  69.9984 286.8461 0003179 271.8991  88.1840 15.69924696 27202,6737.249,91.724,361.256,356.973,0.0
56771.0,STARLINK-6339,PAYLOAD,2023-11-20 14:44:38,15.69920818,0.0003012,69.9986,285.9494,273.9227,86.1625,6.5842e-06,5.79e-06,0.0,0 STARLINK-6339,1 56771U 23078E   23324.61433226  .00000579  00000-0  65842-5 0  9998,2 56771  69.9986 285.9494 0003012 273.9227  86.1625 15.69920818 27516,6737.261,91.724,361.155,357.096,0.0
56771.0,STARLINK-6339,PAYLOAD,2023-11-20 22:23:23,15.69913365,0.0003162,69.9982,285.0534,268.163,91.9203,3.1399e-05,3.563e-05,0.0,0 STARLINK-6339,1 56771U 23078E   23324.93291409  .00003563  00000-0  31399-4 0  9993,2 56771  69.9982 285.0534 0003162 268.1630  91.9203 15.69913365 27300,6737.282,91.725,361.277,357.017,0.0
56771.0,STARLINK-6339,PAYLOAD,2023-11-21 07:33:54,15.69920852,0.0003114,69.9989,283.9791,269.8396,90.2443,-2.2666e-06,-4.85e-06,0.0,0 STARLINK-6339,1 56771U 23078E   23325.31521808 -.00000485  00000-0 -22666-5 0  9995,2 56771  69.9989 283.9791 0003114 269.8396  90.2443 15.69920852 27366,6737.26,91.724,361.223,357.027,0.0
56771.0,STARLINK-6339,PAYLOAD,2023-11-22 00:23:10,15.69931659,0.0003072,69.9979,282.008,271.0724,89.012,1.7568e-05,1.901e-05,0.0,0 STARLINK-6339,1 56771U 23078E   23326.01608918  .00001901  00000-0  17568-4 0  9997,2 56771  69.9979 282.0080 0003072 271.0724  89.0120 15.69931659 27735,6737.23,91.724,361.164,357.025,0.0
56771.0,STARLINK-6339,PAYLOAD,2023-11-22 06:30:13,15.69890304,0.0003314,69.998,281.2918,269.5506,90.531,-2.9882e-05,-3.799e-05,0.0,0 STARLINK-6339,1 56771U 23078E   23326.27098931 -.00003799  00000-0 -29882-4 0  9994,2 56771  69.9980 281.2918 0003314 269.5506  90.5310 15.69890304 27770,6737.348,91.726,361.446,356.98,0.0
56771.0,STARLINK-6339,PAYLOAD,2023-11-22 21:47:43,15.69916927,0.0003238,69.9977,279.4991,273.595,86.4875,-3.4692e-06,-6.3e-06,0.0,0 STARLINK-6339,1 56771U 23078E   23326.90813862 -.00000630  00000-0 -34692-5 0  9999,2 56771  69.9977 279.4991 0003238 273.5950  86.4875 15.69916927 27612,6737.272,91.725,361.318,356.955,0.0
56771.0,STARLINK-6339,PAYLOAD,2023-11-23 00:51:13,15.69915361,0.0003272,69.999,279.1423,276.2551,83.8271,3.8052e-06,2.45e-06,0.0,0 STARLINK-6339,1 56771U 23078E   23327.03557248  .00000245  00000-0  38052-5 0  9991,2 56771  69.9990 279.1423 0003272 276.2551  83.8271 15.69915361 27891,6737.276,91.725,361.346,356.937,0.0
56771.0,STARLINK-6339,PAYLOAD,2023-11-23 06:58:13,15.69910321,0.0002741,69.9997,278.4227,278.5869,81.5016,2.0103e-05,2.204e-05,0.0,0 STARLINK-6339,1 56771U 23078E   23327.29043973  .00002204  00000-0  20103-4 0  9998,2 56771  69.9997 278.4227 0002741 278.5869  81.5016 15.69910321 27678,6737.291,91.725,361.002,357.309,0.0
56771.0,STARLINK-6339,PAYLOAD,2023-11-23 22:15:45,15.69916536,0.0002775,69.9987,276.6309,271.7549,88.3329,8.8458e-06,8.51e-06,0.0,0 STARLINK-6339,1 56771U 23078E   23327.92760453  .00000851  00000-0  88458-5 0  9991,2 56771  69.9987 276.6309 0002775 271.7549  88.3329 15.69916536 27772,6737.273,91.725,361.007,357.268,0.0
56771.0,STARLINK-6339,PAYLOAD,2023-11-23 23:47:30,15.69917124,0.0002811,69.9988,276.4518,275.0528,85.0347,8.9885e-06,8.68e-06,0.0,0 STARLINK-6339,1 56771U 23078E   23327.99132135  .00000868  00000-0  89885-5 0  9991,2 56771  69.9988 276.4518 0002811 275.0528  85.0347 15.69917124 28047,6737.271,91.725,361.03,357.242,0.0
56771.0,STARLINK-6339,PAYLOAD,2023-11-24 07:26:14,15.69934904,0.0003367,69.9979,275.5617,265.6852,94.3959,1.4757e-05,1.563e-05,0.0,0 STARLINK-6339,1 56771U 23078E   23328.30989229  .00001563  00000-0  14757-4 0  9999,2 56771  69.9979 275.5617 0003367 265.6852  94.3959 15.69934904 28091,6737.22,91.724,361.354,356.817,0.0
56771.0,STARLINK-6339,PAYLOAD,2023-11-24 22:43:47,15.69917243,0.0002787,69.9999,273.7689,245.2824,114.8082,-7.055e-06,-1.06e-05,0.0,0 STARLINK-6339,1 56771U 23078E   23328.94707936 -.00001060  00000-0 -70550-5 0  9990,2 56771  69.9999 273.7689 0002787 245.2824 114.8082 15.69917243 27934,6737.271,91.725,361.013,357.258,0.0
56771.0,STARLINK-6339,PAYLOAD,2023-11-25 00:15:32,15.69908498,0.0002778,70.0004,273.5881,255.97,104.1187,9.3955e-06,9.17e-06,0.0,0 STARLINK-6339,1 56771U 23078E   23329.01079823  .00000917  00000-0  93955-5 0  9998,2 56771  70.0004 273.5881 0002778 255.9700 104.1187 15.69908498 28208,6737.296,91.725,361.032,357.289,0.0
56771.0,STARLINK-6339,PAYLOAD,2023-11-25 06:22:31,15.69938715,0.0002815,69.9992,272.8696,282.8298,77.2583,2.3478e-05,2.613e-05,0.0,0 STARLINK-6339,1 56771U 23078E   23329.26564421  .00002613  00000-0  23478-4 0  9995,2 56771  69.9992 272.8696 0002815 282.8298  77.2583 15.69938715 27989,6737.209,91.723,360.971,357.178,0.0
56771.0,STARLINK-6339,PAYLOAD,2023-11-25 21:40:02,15.69937098,0.0003134,69.9992,271.0822,264.7765,95.3073,1.4786e-05,1.566e-05,0.0,0 STARLINK-6339,1 56771U 23078E   23329.90281042  .00001566  00000-0  14786-4 0  9999,2 56771  69.9992 271.0822 0003134 264.7765  95.3073 15.69937098 28084,6737.214,91.723,361.19,356.968,0.0
56771.0,STARLINK-6339,PAYLOAD,2023-11-25 23:11:47,15.6993676,0.0003301,69.9986,270.9043,263.8822,96.1997,1.1366e-05,1.155e-05,0.0,0 STARLINK-6339,1 56771U 23078E   23329.96652725  .00001155  00000-0  11366-4 0  9990,2 56771  69.9986 270.9043 0003301 263.8822  96.1997 15.69936760 28359,6737.215,91.723,361.304,356.856,0.0
56771.0,STARLINK-6339,PAYLOAD,2023-11-26 05:18:51,15.69895261,0.0002577,70.0003,270.1875,270.228,89.862,-2.6714e-05,-3.419e-05,0.0,0 STARLINK-6339,1 56771U 23078E   23330.22142709 -.00003419  00000-0 -26714-4 0  9997,2 56771  70.0003 270.1875 0002577 270.2280  89.8620 15.69895261 28397,6737.334,91.726,360.935,357.462,0.0
56771.0,STARLINK-6339,PAYLOAD,2023-11-26 22:08:07,15.699335,0.0002737,70.0017,268.2158,243.0106,117.081,-8.9146e-05,-0.0001092,0.0,0 STARLINK-6339,1 56771U 23078E   23330.92231376 -.00010920  00000-0 -89146-4 0  9996,2 56771  70.0017 268.2158 0002737 243.0106 117.0810 15.69933500 28245,6737.224,91.724,360.933,357.245,0.0
56771.0,STARLINK-6339,PAYLOAD,2023-11-27 04:15:06,15.69945665,0.0002973,70.0008,267.5024,224.3717,135.7241,-5.8676e-05,-7.267e-05,0.0,0 STARLINK-6339,1 56771U 23078E   23331.17716389 -.00007267  00000-0 -58676-4 0  9990,2 56771  70.0008 267.5024 0002973 224.3717 135.7241 15.69945665 28544,6737.189,91.723,361.057,357.051,0.0
56771.0,STARLINK-6339,PAYLOAD,2023-11-27 05:46:51,15.69934917,0.0002752,70.0007,267.3232,253.8116,106.2777,4.0485e-06,2.75e-06,0.0,0 STARLINK-6339,1 56771U 23078E   23331.24087567  .00000275  00000-0  40485-5 0  9997,2 56771  70.0007 267.3232 0002752 253.8116 106.2777 15.69934917 28294,6737.22,91.724,360.939,357.231,0.0
56771.0,STARLINK-6339,PAYLOAD,2023-11-27 22:36:07,15.69931367,0.0002981,70.0003,265.3534,246.1813,113.907,2.5001e-05,2.795e-05,0.0,0 STARLINK-6339,1 56771U 23078E   23331.94175097  .00002795  00000-0  25001-4 0  9995,2 56771  70.0003 265.3534 0002981 246.1813 113.9070 15.69931367 28406,6737.23,91.724,361.104,357.087,0.0
56771.0,STARLINK-6339,PAYLOAD,2023-11-28 04:43:07,15.69935424,0.0002944,70.0,264.6364,246.6615,113.4271,2.7377e-05,3.082e-05,0.0,0 STARLINK-6339,1 56771U 23078E   23332.19661426  .00003082  00000-0  27377-4 0  9997,2 56771  70.0000 264.6364 0002944 246.6615 113.4271 15.69935424 28709,6737.219,91.724,361.067,357.1,0.0
56771.0,STARLINK-6339,PAYLOAD,2023-11-28 20:00:39,15.69920818,0.0002953,70.0002,262.8423,216.488,143.6115,2.4397e-05,2.721e-05,0.0,0 STARLINK-6339,1 56771U 23078E   23332.83379328  .00002721  00000-0  24397-4 0  9993,2 56771  70.0002 262.8423 0002953 216.4880 143.6115 15.69920818 28800,6737.261,91.724,361.115,357.136,0.0
56771.0,STARLINK-6339,PAYLOAD,2023-11-29 05:11:11,15.69919289,0.0002177,69.9981,261.763,271.7651,88.3295,1.4921e-05,1.582e-05,0.0,0 STARLINK-6339,1 56771U 23078E   23333.21610019  .00001582  00000-0  14921-4 0  9997,2 56771  69.9981 261.7630 0002177 271.7651  88.3295 15.69919289 28601,6737.265,91.724,360.597,357.663,0.0
56771.0,STARLINK-6339,PAYLOAD,2023-11-29 22:00:26,15.699277,0.0002955,69.9979,259.7916,248.632,111.4561,2.0818e-06,3.8e-07,0.0,0 STARLINK-6339,1 56771U 23078E   23333.91697540  .00000038  00000-0  20818-5 0  9996,2 56771  69.9979 259.7916 0002955 248.6320 111.4561 15.69927700 28973,6737.241,91.724,361.097,357.115,0.0
56771.0,STARLINK-6339,PAYLOAD,2023-12-01 03:03:44,15.69922164,0.0003201,69.9991,256.3913,259.1439,100.9397,-3.5431e-06,-6.39e-06,0.0,0 STARLINK-6339,1 56771U 23078E   23335.12759692 -.00000639  00000-0 -35431-5 0  9994,2 56771  69.9991 256.3913 0003201 259.1439 100.9397 15.69922164 29161,6737.257,91.724,361.278,356.965,0.0
56771.0,STARLINK-6339,PAYLOAD,2023-12-01 04:35:32,15.69880616,0.0003319,69.9991,256.2118,256.7299,103.3527,-5.0522e-05,-6.272e-05,0.0,0 STARLINK-6339,1 56771U 23078E   23335.19134690 -.00006272  00000-0 -50522-4 0  9992,2 56771  69.9991 256.2118 0003319 256.7299 103.3527 15.69880616 29172,6737.376,91.727,361.477,357.004,0.0
56771.0,STARLINK-6339,PAYLOAD,2023-12-01 19:53:03,15.69901571,0.0003814,69.9975,254.4178,276.9873,83.0888,-2.4623e-05,-3.17e-05,0.0,0 STARLINK-6339,1 56771U 23078E   23335.82850742 -.00003170  00000-0 -24623-4 0  9992,2 56771  69.9975 254.4178 0003814 276.9873  83.0888 15.69901571 29271,6737.316,91.725,361.75,356.611,0.0
56771.0,STARLINK-6339,PAYLOAD,2023-12-01 21:24:43,15.69961892,0.0003181,69.9997,254.2437,236.0337,124.0557,5.179e-05,6.029e-05,0.0,0 STARLINK-6339,1 56771U 23078E   23335.89217366  .00006029  00000-0  51790-4 0  9997,2 56771  69.9997 254.2437 0003181 236.0337 124.0557 15.69961892 29024,6737.143,91.722,361.151,356.865,0.0
